start=new Date('2023-06-15T00:00:00.000Z').valueOf();
sats=[{"OBJECT_NAME":"STARLINK-1917","TIME_SYSTEM":"UTC","PERIAPSIS":"546.367","SITE":"AFETR","RA_OF_ASC_NODE":"143.4178","REF_FRAME":"TEME","EPHEMERIS_TYPE":"0","ELEMENT_SET_NO":"999","CLASSIFICATION_TYPE":"U","LAUNCH_DATE":"2020-10-24","OBJECT_TYPE":"PAYLOAD","INCLINATION":"53.0548","DECAY_DATE":null,"CENTER_NAME":"EARTH","GP_ID":"233910203","OBJECT_ID":"2020-074AE","TLE_LINE1":"1 46767U 20074AE  23165.21919658  .00000936  00000-0  81730-4 0  9992","PERIOD":"95.592","MEAN_ANOMALY":"272.7434","MEAN_MOTION_DDOT":"0.0000000000000","ECCENTRICITY":"0.00011980","BSTAR":"0.00008173000000","SEMIMAJOR_AXIS":"6925.332","MEAN_MOTION_DOT":"0.00000936","MEAN_ELEMENT_THEORY":"SGP4","TLE_LINE2":"2 46767  53.0548 143.4178 0001198  87.3693 272.7434 15.06405397145829","RCS_SIZE":"LARGE","NORAD_CAT_ID":"46767","REV_AT_EPOCH":"14582","COUNTRY_CODE":"US","FILE":"3932965","APOAPSIS":"548.027","MEAN_MOTION":"15.06405397","EPOCH":"2023-06-14T05:15:38.584512","ARG_OF_PERICENTER":"87.3693"},{"EPOCH":"2023-06-14T05:20:57.903360","ARG_OF_PERICENTER":"88.0867","APOAPSIS":"547.960","FILE":"3932965","MEAN_MOTION":"15.06395851","COUNTRY_CODE":"US","REV_AT_EPOCH":"14582","NORAD_CAT_ID":"46768","RCS_SIZE":"LARGE","MEAN_ELEMENT_THEORY":"SGP4","TLE_LINE2":"2 46768  53.0539 143.4007 0001059  88.0867 272.0243 15.06395851145822","SEMIMAJOR_AXIS":"6925.361","MEAN_MOTION_DOT":"-0.00000098","ECCENTRICITY":"0.00010590","BSTAR":"0.00001231300000","MEAN_MOTION_DDOT":"0.0000000000000","MEAN_ANOMALY":"272.0243","PERIOD":"95.592","TLE_LINE1":"1 46768U 20074AF  23165.22289240 -.00000098  00000-0  12313-4 0  9992","CENTER_NAME":"EARTH","GP_ID":"233910453","OBJECT_ID":"2020-074AF","DECAY_DATE":null,"LAUNCH_DATE":"2020-10-24","INCLINATION":"53.0539","OBJECT_TYPE":"PAYLOAD","CLASSIFICATION_TYPE":"U","ELEMENT_SET_NO":"999","EPHEMERIS_TYPE":"0","REF_FRAME":"TEME","RA_OF_ASC_NODE":"143.4007","SITE":"AFETR","PERIAPSIS":"546.493","OBJECT_NAME":"STARLINK-1918","TIME_SYSTEM":"UTC"},{"REV_AT_EPOCH":"14581","NORAD_CAT_ID":"46770","RCS_SIZE":"LARGE","ARG_OF_PERICENTER":"83.7972","EPOCH":"2023-06-14T05:31:39.642816","MEAN_MOTION":"15.06408723","FILE":"3932965","APOAPSIS":"548.030","COUNTRY_CODE":"US","MEAN_MOTION_DDOT":"0.0000000000000","MEAN_ANOMALY":"276.3156","TLE_LINE2":"2 46770  53.0546 143.9117 0001218  83.7972 276.3156 15.06408723145818","MEAN_ELEMENT_THEORY":"SGP4","MEAN_MOTION_DOT":"0.00001635","SEMIMAJOR_AXIS":"6925.322","BSTAR":"0.00012857000000","ECCENTRICITY":"0.00012180","PERIOD":"95.592","TLE_LINE1":"1 46770U 20074AH  23165.23031994  .00001635  00000-0  12857-3 0  9996","GP_ID":"233911704","OBJECT_ID":"2020-074AH","CENTER_NAME":"EARTH","DECAY_DATE":null,"RA_OF_ASC_NODE":"143.9117","SITE":"AFETR","PERIAPSIS":"546.343","TIME_SYSTEM":"UTC","OBJECT_NAME":"STARLINK-1932","INCLINATION":"53.0546","LAUNCH_DATE":"2020-10-24","OBJECT_TYPE":"PAYLOAD","CLASSIFICATION_TYPE":"U","ELEMENT_SET_NO":"999","EPHEMERIS_TYPE":"0","REF_FRAME":"TEME"},{"DECAY_DATE":null,"OBJECT_ID":"2020-074AK","GP_ID":"233911452","CENTER_NAME":"EARTH","TLE_LINE1":"1 46772U 20074AK  23165.22930978  .00001276  00000-0  10449-3 0  9993","PERIOD":"95.592","REF_FRAME":"TEME","EPHEMERIS_TYPE":"0","ELEMENT_SET_NO":"999","CLASSIFICATION_TYPE":"U","LAUNCH_DATE":"2020-10-24","INCLINATION":"53.0542","OBJECT_TYPE":"PAYLOAD","TIME_SYSTEM":"UTC","OBJECT_NAME":"STARLINK-1936","PERIAPSIS":"546.367","RA_OF_ASC_NODE":"143.3571","SITE":"AFETR","COUNTRY_CODE":"US","MEAN_MOTION":"15.06408669","APOAPSIS":"548.007","FILE":"3932965","ARG_OF_PERICENTER":"84.4311","EPOCH":"2023-06-14T05:30:12.364992","NORAD_CAT_ID":"46772","RCS_SIZE":"LARGE","REV_AT_EPOCH":"14582","BSTAR":"0.00010449000000","ECCENTRICITY":"0.00011840","MEAN_MOTION_DOT":"0.00001276","SEMIMAJOR_AXIS":"6925.322","TLE_LINE2":"2 46772  53.0542 143.3571 0001184  84.4311 275.6813 15.06408669145823","MEAN_ELEMENT_THEORY":"SGP4","MEAN_ANOMALY":"275.6813","MEAN_MOTION_DDOT":"0.0000000000000"},{"PERIAPSIS":"546.343","TIME_SYSTEM":"UTC","OBJECT_NAME":"STARLINK-1798","RA_OF_ASC_NODE":"118.2277","SITE":"AFETR","EPHEMERIS_TYPE":"0","REF_FRAME":"TEME","LAUNCH_DATE":"2020-10-24","INCLINATION":"53.0527","OBJECT_TYPE":"PAYLOAD","ELEMENT_SET_NO":"999","CLASSIFICATION_TYPE":"U","OBJECT_ID":"2020-074AS","GP_ID":"233910703","CENTER_NAME":"EARTH","DECAY_DATE":null,"PERIOD":"95.592","TLE_LINE1":"1 46779U 20074AS  23165.26021743  .00012872  00000-0  88139-3 0  9990","MEAN_MOTION_DDOT":"0.0000000000000","MEAN_ANOMALY":"265.8886","BSTAR":"0.00088139000000","ECCENTRICITY":"0.00012400","TLE_LINE2":"2 46779  53.0527 118.2277 0001240  94.2245 265.8886 15.06403893146179","MEAN_ELEMENT_THEORY":"SGP4","MEAN_MOTION_DOT":"0.00012872","SEMIMAJOR_AXIS":"6925.337","REV_AT_EPOCH":"14617","RCS_SIZE":"LARGE","NORAD_CAT_ID":"46779","MEAN_MOTION":"15.06403893","APOAPSIS":"548.060","FILE":"3932965","COUNTRY_CODE":"US","ARG_OF_PERICENTER":"94.2245","EPOCH":"2023-06-14T06:14:42.785952"},{"NORAD_CAT_ID":"46780","RCS_SIZE":"LARGE","REV_AT_EPOCH":"14617","COUNTRY_CODE":"US","APOAPSIS":"548.074","FILE":"3932965","MEAN_MOTION":"15.06408976","EPOCH":"2023-06-14T05:58:46.541856","ARG_OF_PERICENTER":"90.8072","MEAN_ANOMALY":"269.3064","MEAN_MOTION_DDOT":"0.0000000000000","ECCENTRICITY":"0.00012820","BSTAR":"0.00024479000000","SEMIMAJOR_AXIS":"6925.321","MEAN_MOTION_DOT":"0.00003367","MEAN_ELEMENT_THEORY":"SGP4","TLE_LINE2":"2 46780  53.0534 118.2785 0001282  90.8072 269.3064 15.06408976146173","DECAY_DATE":null,"CENTER_NAME":"EARTH","OBJECT_ID":"2020-074AT","GP_ID":"233910953","TLE_LINE1":"1 46780U 20074AT  23165.24914979  .00003367  00000-0  24479-3 0  9998","PERIOD":"95.592","OBJECT_NAME":"STARLINK-1832","TIME_SYSTEM":"UTC","PERIAPSIS":"546.298","SITE":"AFETR","RA_OF_ASC_NODE":"118.2785","REF_FRAME":"TEME","EPHEMERIS_TYPE":"0","CLASSIFICATION_TYPE":"U","ELEMENT_SET_NO":"999","OBJECT_TYPE":"PAYLOAD","LAUNCH_DATE":"2020-10-24","INCLINATION":"53.0534"},{"PERIOD":"95.593","TLE_LINE1":"1 46781U 20074AU  23165.86379065  .00000382  00000-0  44530-4 0  9993","GP_ID":"233943830","OBJECT_ID":"2020-074AU","CENTER_NAME":"EARTH","DECAY_DATE":null,"SITE":"AFETR","RA_OF_ASC_NODE":"125.5209","PERIAPSIS":"546.214","TIME_SYSTEM":"UTC","OBJECT_NAME":"STARLINK-1834","LAUNCH_DATE":"2020-10-24","INCLINATION":"53.0543","OBJECT_TYPE":"PAYLOAD","ELEMENT_SET_NO":"999","CLASSIFICATION_TYPE":"U","EPHEMERIS_TYPE":"0","REF_FRAME":"TEME","REV_AT_EPOCH":"14613","NORAD_CAT_ID":"46781","RCS_SIZE":"LARGE","ARG_OF_PERICENTER":"95.0266","EPOCH":"2023-06-14T20:43:51.512160","MEAN_MOTION":"15.06388921","FILE":"3933215","APOAPSIS":"548.281","COUNTRY_CODE":"US","MEAN_MOTION_DDOT":"0.0000000000000","MEAN_ANOMALY":"265.0893","TLE_LINE2":"2 46781  53.0543 125.5209 0001492  95.0266 265.0893 15.06388921146137","MEAN_ELEMENT_THEORY":"SGP4","MEAN_MOTION_DOT":"0.00000382","SEMIMAJOR_AXIS":"6925.383","BSTAR":"0.00004453000000","ECCENTRICITY":"0.00014920"},{"DECAY_DATE":null,"GP_ID":"233942579","OBJECT_ID":"2020-074AV","CENTER_NAME":"EARTH","TLE_LINE1":"1 46782U 20074AV  23165.83522359  .00000446  00000-0  48844-4 0  9990","PERIOD":"95.592","REF_FRAME":"TEME","EPHEMERIS_TYPE":"0","CLASSIFICATION_TYPE":"U","ELEMENT_SET_NO":"999","OBJECT_TYPE":"PAYLOAD","LAUNCH_DATE":"2020-10-24","INCLINATION":"53.0533","TIME_SYSTEM":"UTC","OBJECT_NAME":"STARLINK-1835","PERIAPSIS":"546.139","RA_OF_ASC_NODE":"115.6500","SITE":"AFETR","COUNTRY_CODE":"US","MEAN_MOTION":"15.06396162","FILE":"3933215","APOAPSIS":"548.312","ARG_OF_PERICENTER":"82.6121","EPOCH":"2023-06-14T20:02:43.318176","RCS_SIZE":"LARGE","NORAD_CAT_ID":"46782","REV_AT_EPOCH":"14626","BSTAR":"0.00004884400000","ECCENTRICITY":"0.00015690","MEAN_MOTION_DOT":"0.00000446","SEMIMAJOR_AXIS":"6925.360","TLE_LINE2":"2 46782  53.0533 115.6500 0001569  82.6121 277.5046 15.06396162146266","MEAN_ELEMENT_THEORY":"SGP4","MEAN_ANOMALY":"277.5046","MEAN_MOTION_DDOT":"0.0000000000000"},{"APOAPSIS":"548.022","FILE":"3932965","MEAN_MOTION":"15.06391854","COUNTRY_CODE":"US","EPOCH":"2023-06-14T06:04:06.973536","ARG_OF_PERICENTER":"107.6543","REV_AT_EPOCH":"14617","RCS_SIZE":"LARGE","NORAD_CAT_ID":"46783","ECCENTRICITY":"0.00011310","BSTAR":"0.00031856000000","MEAN_ELEMENT_THEORY":"SGP4","TLE_LINE2":"2 46783  53.0538 118.2667 0001131 107.6543 252.4569 15.06391854146171","SEMIMAJOR_AXIS":"6925.374","MEAN_MOTION_DOT":"0.00004466","MEAN_MOTION_DDOT":"0.0000000000000","MEAN_ANOMALY":"252.4569","CENTER_NAME":"EARTH","GP_ID":"233910204","OBJECT_ID":"2020-074AW","DECAY_DATE":null,"PERIOD":"95.593","TLE_LINE1":"1 46783U 20074AW  23165.25285849  .00004466  00000-0  31856-3 0  9997","EPHEMERIS_TYPE":"0","REF_FRAME":"TEME","LAUNCH_DATE":"2020-10-24","OBJECT_TYPE":"PAYLOAD","INCLINATION":"53.0538","ELEMENT_SET_NO":"999","CLASSIFICATION_TYPE":"U","PERIAPSIS":"546.455","OBJECT_NAME":"STARLINK-1851","TIME_SYSTEM":"UTC","RA_OF_ASC_NODE":"118.2667","SITE":"AFETR"},{"CENTER_NAME":"EARTH","GP_ID":"233910454","OBJECT_ID":"2020-074AX","DECAY_DATE":null,"PERIOD":"95.591","TLE_LINE1":"1 46784U 20074AX  23165.32192313  .00003939  00000-0  28311-3 0  9995","EPHEMERIS_TYPE":"0","REF_FRAME":"TEME","INCLINATION":"53.0547","LAUNCH_DATE":"2020-10-24","OBJECT_TYPE":"PAYLOAD","ELEMENT_SET_NO":"999","CLASSIFICATION_TYPE":"U","PERIAPSIS":"546.176","OBJECT_NAME":"STARLINK-1882","TIME_SYSTEM":"UTC","RA_OF_ASC_NODE":"117.9456","SITE":"AFETR","FILE":"3932965","APOAPSIS":"548.177","MEAN_MOTION":"15.06412176","COUNTRY_CODE":"US","EPOCH":"2023-06-14T07:43:34.158432","ARG_OF_PERICENTER":"82.1905","REV_AT_EPOCH":"14618","NORAD_CAT_ID":"46784","RCS_SIZE":"LARGE","ECCENTRICITY":"0.00014450","BSTAR":"0.00028311000000","MEAN_ELEMENT_THEORY":"SGP4","TLE_LINE2":"2 46784  53.0547 117.9456 0001445  82.1905 277.9248 15.06412176146189","SEMIMAJOR_AXIS":"6925.311","MEAN_MOTION_DOT":"0.00003939","MEAN_MOTION_DDOT":"0.0000000000000","MEAN_ANOMALY":"277.9248"}];
